IRIDIUM 150             
1 43257U 18030J   25265.44633508  .00000253  00000+0  83391-4 0  9993
2 43257  86.3970  42.3722 0002268  87.7807 272.3648 14.34218921391786
IRIDIUM 143             
1 43258U 18030K   25265.63661384  .00000033  00000+0  45489-5 0  9991
2 43258  86.3974  42.3747 0002379  84.0847 276.0620 14.34217793391748
IRIDIUM 161             
1 43478U 18047C   25265.55195698  .00000586  00000+0  16809-3 0  9999
2 43478  86.4547 200.2578 0002196  87.5442 272.6010 14.43285827386531
IRIDIUM 152             
1 43479U 18047D   25265.53956270  .00000117  00000+0  34856-4 0  9992
2 43479  86.4022 200.1236 0002302  87.8961 272.2498 14.34218455384120
IRIDIUM 147             
1 43480U 18047E   25265.33660002  .00000107  00000+0  30984-4 0  9994
2 43480  86.4026 200.2089 0002103  83.4333 276.7102 14.34218091384090
IRIDIUM 110             
1 43481U 18047F   25265.55224692  .00000163  00000+0  51000-4 0  9994
2 43481  86.4029 200.2034 0001921  96.5324 263.6091 14.34218662384115
IRIDIUM 162             
1 43482U 18047G   25265.54565637  .00000572  00000+0  16399-3 0  9996
2 43482  86.4547 200.1546 0002294  91.7418 268.4046 14.43285273386525
IRIDIUM 160             
1 43569U 18061A   25265.49808409  .00000057  00000+0  13237-4 0  9996
2 43569  86.4043 168.6722 0001953  88.3629 271.7791 14.34217860375005
